NORAD_CAT_ID,OBJECT_NAME,OBJECT_TYPE,EPOCH,MEAN_MOTION,ECCENTRICITY,INCLINATION,RA_OF_ASC_NODE,ARG_OF_PERICENTER,MEAN_ANOMALY,BSTAR,MEAN_MOTION_DOT,MEAN_MOTION_DDOT,TLE_LINE0,TLE_LINE1,TLE_LINE2,SEMIMAJOR_AXIS,PERIOD,APOGEE,PERIGEE,DECAYED
52135.0,STARLINK-3729,PAYLOAD,2024-06-18 23:21:21,15.08846312,0.0001383,53.22,11.5485,97.7938,262.3212,0.00017541,2.505e-05,0.0,0 STARLINK-3729,1 52135U 22029AZ  24170.97316443  .00002505  00000-0  17541-3 0  9995,2 52135  53.2200  11.5485 0001383  97.7938 262.3212 15.08846312126029,6917.861,95.437,540.683,538.769,0.0
52135.0,STARLINK-3729,PAYLOAD,2024-06-19 20:01:22,15.08836496,0.0001119,53.218,7.6802,99.5106,260.6013,5.5391e-05,5.94e-06,0.0,0 STARLINK-3729,1 52135U 22029AZ  24171.83428807  .00000594  00000-0  55391-4 0  9991,2 52135  53.2180   7.6802 0001119  99.5106 260.6013 15.08836496126155,6917.891,95.438,540.53,538.982,0.0
52135.0,STARLINK-3729,PAYLOAD,2024-06-20 13:30:37,15.08839326,0.0001622,53.2192,4.4148,91.5479,268.5699,-1.6025e-05,-5.43e-06,0.0,0 STARLINK-3729,1 52135U 22029AZ  24172.56293083 -.00000543  00000-0 -16025-4 0  9995,2 52135  53.2192   4.4148 0001622  91.5479 268.5699 15.08839326126264,6917.882,95.438,540.87,538.625,0.0
52135.0,STARLINK-3729,PAYLOAD,2024-06-20 18:16:47,15.08834431,0.0001436,53.2206,3.5228,112.9157,247.1987,-8.3828e-06,-4.21e-06,0.0,0 STARLINK-3729,1 52135U 22029AZ  24172.76165570 -.00000421  00000-0 -83828-5 0  9997,2 52135  53.2206   3.5228 0001436 112.9157 247.1987 15.08834431126291,6917.897,95.438,540.756,538.769,0.0
52135.0,STARLINK-3729,PAYLOAD,2024-06-21 11:46:01,15.08838877,0.0001116,53.2191,0.2514,111.2478,248.8633,0.00012897,1.765e-05,0.0,0 STARLINK-3729,1 52135U 22029AZ  24173.49029179  .00001765  00000-0  12897-3 0  9998,2 52135  53.2191   0.2514 0001116 111.2478 248.8633 15.08838877126406,6917.884,95.438,540.521,538.977,0.0
52135.0,STARLINK-3729,PAYLOAD,2024-06-21 18:07:33,15.08837697,0.000108,53.2181,359.0616,102.3561,257.7552,0.0001126,1.505e-05,0.0,0 STARLINK-3729,1 52135U 22029AZ  24173.75525238  .00001505  00000-0  11260-3 0  9999,2 52135  53.2181 359.0616 0001080 102.3561 257.7552 15.08837697126449,6917.887,95.438,540.5,539.005,0.0
52135.0,STARLINK-3729,PAYLOAD,2024-06-22 21:09:07,15.08840003,9.76e-05,53.2175,354.0057,90.7701,269.3403,0.00014325,1.993e-05,0.0,0 STARLINK-3729,1 52135U 22029AZ  24174.88133467  .00001993  00000-0  14325-3 0  9999,2 52135  53.2175 354.0057 0000976  90.7701 269.3403 15.08840003126613,6917.88,95.438,540.421,539.07,0.0
52135.0,STARLINK-3729,PAYLOAD,2024-06-23 11:27:35,15.08840356,0.0001026,53.2176,351.3295,88.8788,271.2322,0.00011305,1.512e-05,0.0,0 STARLINK-3729,1 52135U 22029AZ  24175.47749542  .00001512  00000-0  11305-3 0  9994,2 52135  53.2176 351.3295 0001026  88.8788 271.2322 15.08840356126701,6917.879,95.438,540.454,539.035,0.0
52135.0,STARLINK-3729,PAYLOAD,2024-06-23 19:24:31,15.08836872,9.72e-05,53.2176,349.842,91.1876,268.9227,4.4558e-05,4.21e-06,0.0,0 STARLINK-3729,1 52135U 22029AZ  24175.80869804  .00000421  00000-0  44558-4 0  9990,2 52135  53.2176 349.8420 0000972  91.1876 268.9227 15.08836872126757,6917.89,95.438,540.427,539.083,0.0
52135.0,STARLINK-3729,PAYLOAD,2024-06-24 11:18:22,15.0884124,8.77e-05,53.218,346.867,107.5269,252.5819,9.4767e-05,1.221e-05,0.0,0 STARLINK-3729,1 52135U 22029AZ  24176.47109695  .00001221  00000-0  94767-4 0  9995,2 52135  53.2180 346.8670 0000877 107.5269 252.5819 15.08841240126850,6917.877,95.437,540.348,539.135,0.0
52135.0,STARLINK-3729,PAYLOAD,2024-06-24 17:39:54,15.08847624,9.35e-05,53.218,345.6785,95.8895,264.2204,0.00014559,2.031e-05,0.0,0 STARLINK-3729,1 52135U 22029AZ  24176.73605172  .00002031  00000-0  14559-3 0  9995,2 52135  53.2180 345.6785 0000935  95.8895 264.2204 15.08847624126897,6917.857,95.437,540.369,539.075,0.0
52135.0,STARLINK-3729,PAYLOAD,2024-06-25 14:19:55,15.08845116,9.71e-05,53.2172,341.8134,84.5701,275.5402,0.00019828,2.87e-05,0.0,0 STARLINK-3729,1 52135U 22029AZ  24177.59717406  .00002870  00000-0  19828-3 0  9999,2 52135  53.2172 341.8134 0000971  84.5701 275.5402 15.08845116127020,6917.865,95.437,540.401,539.058,0.0
52135.0,STARLINK-3729,PAYLOAD,2024-06-25 17:30:42,15.08844562,9.15e-05,53.2171,341.2183,90.0101,270.0996,0.00017678,2.527e-05,0.0,0 STARLINK-3729,1 52135U 22029AZ  24177.72965390  .00002527  00000-0  17678-3 0  9991,2 52135  53.2171 341.2183 0000915  90.0101 270.0996 15.08844562127045,6917.866,95.437,540.364,539.098,0.0
52135.0,STARLINK-3729,PAYLOAD,2024-06-27 17:12:16,15.08834417,0.000101,53.2178,332.2998,92.8008,267.31,-5.7658e-07,-2.97e-06,0.0,0 STARLINK-3729,1 52135U 22029AZ  24179.71685919 -.00000297  00000-0 -57658-6 0  9997,2 52135  53.2178 332.2998 0001010  92.8008 267.3100 15.08834417127346,6917.897,95.438,540.461,539.064,0.0
52135.0,STARLINK-3729,PAYLOAD,2024-06-28 02:44:35,15.08841225,0.0001186,53.2179,330.5128,82.4854,277.6273,8.832e-05,1.118e-05,0.0,0 STARLINK-3729,1 52135U 22029AZ  24180.11429719  .00001118  00000-0  88320-4 0  9996,2 52135  53.2179 330.5128 0001186  82.4854 277.6273 15.08841225127408,6917.877,95.437,540.562,538.921,0.0
52135.0,STARLINK-3729,PAYLOAD,2024-06-28 13:52:17,15.08825518,0.0001237,53.2185,328.4335,92.4851,267.6283,0.00040752,6.201e-05,0.0,0 STARLINK-3729,1 52135U 22029AZ  24180.57797882  .00006201  00000-0  40752-3 0  9999,2 52135  53.2185 328.4335 0001237  92.4851 267.6283 15.08825518127470,6917.925,95.438,540.645,538.934,0.0
52135.0,STARLINK-3729,PAYLOAD,2024-06-28 15:27:40,15.08842134,0.0001202,53.2181,328.1351,101.8829,258.2298,0.00024308,3.583e-05,0.0,0 STARLINK-3729,1 52135U 22029AZ  24180.64421584  .00003583  00000-0  24308-3 0  9999,2 52135  53.2181 328.1351 0001202 101.8829 258.2298 15.08842134127489,6917.874,95.437,540.57,538.907,0.0
52135.0,STARLINK-3729,PAYLOAD,2024-06-29 02:35:21,15.08859742,0.0001001,53.2167,326.0493,63.9495,296.16,0.00034357,5.187e-05,0.0,0 STARLINK-3729,1 52135U 22029AZ  24181.10788528  .00005187  00000-0  34357-3 0  9992,2 52135  53.2167 326.0493 0001001  63.9495 296.1600 15.08859742127550,6917.82,95.436,540.378,538.993,0.0
52135.0,STARLINK-3729,PAYLOAD,2024-06-29 13:43:05,15.08818336,9.8e-05,53.217,323.9693,83.5048,276.6056,-0.00027594,-4.674e-05,0.0,0 STARLINK-3729,1 52135U 22029AZ  24181.57158740 -.00004674  00000-0 -27594-3 0  9997,2 52135  53.2170 323.9693 0000980  83.5048 276.6056 15.08818336127629,6917.947,95.439,540.49,539.134,0.0
52135.0,STARLINK-3729,PAYLOAD,2024-06-29 20:04:37,15.08830306,0.0001057,53.2171,322.7812,106.4891,253.6217,-7.1976e-05,-1.433e-05,0.0,0 STARLINK-3729,1 52135U 22029AZ  24181.83654482 -.00001433  00000-0 -71976-4 0  9994,2 52135  53.2171 322.7812 0001057 106.4891 253.6217 15.08830306127666,6917.91,95.438,540.506,539.044,0.0
52135.0,STARLINK-3729,PAYLOAD,2024-06-30 02:26:09,15.08839213,0.0001022,53.2174,321.5939,91.5215,268.5894,7.7567e-05,9.47e-06,0.0,0 STARLINK-3729,1 52135U 22029AZ  24182.10150178  .00000947  00000-0  77567-4 0  9997,2 52135  53.2174 321.5939 0001022  91.5215 268.5894 15.08839213127709,6917.883,95.438,540.455,539.041,0.0
52135.0,STARLINK-3729,PAYLOAD,2024-06-30 13:33:52,15.0883274,0.0001022,53.2159,319.5133,94.7272,265.3837,1.5666e-05,-3.8e-07,0.0,0 STARLINK-3729,1 52135U 22029AZ  24182.56518656 -.00000038  00000-0  15666-4 0  9990,2 52135  53.2159 319.5133 0001022  94.7272 265.3837 15.08832740127770,6917.903,95.438,540.475,539.061,0.0
52135.0,STARLINK-3729,PAYLOAD,2024-06-30 18:20:00,15.08848691,9.38e-05,53.2167,318.6165,114.6297,245.4793,5.6727e-05,6.15e-06,0.0,0 STARLINK-3729,1 52135U 22029AZ  24182.76389620  .00000615  00000-0  56727-4 0  9992,2 52135  53.2167 318.6165 0000938 114.6297 245.4793 15.08848691127804,6917.854,95.437,540.368,539.07,0.0
52135.0,STARLINK-3729,PAYLOAD,2024-07-01 02:16:55,15.08857396,7.86e-05,53.2171,317.1305,77.0553,283.0527,0.00021029,3.062e-05,0.0,0 STARLINK-3729,1 52135U 22029AZ  24183.09509126  .00003062  00000-0  21029-3 0  9999,2 52135  53.2171 317.1305 0000786  77.0553 283.0527 15.08857396127857,6917.827,95.436,540.236,539.148,0.0
52135.0,STARLINK-3729,PAYLOAD,2024-07-01 08:38:29,15.08844493,0.0002123,53.2146,315.9453,80.3235,279.7996,0.00049289,7.566e-05,0.0,0 STARLINK-3729,1 52135U 22029AZ  24183.36006364  .00007566  00000-0  49289-3 0  9996,2 52135  53.2146 315.9453 0002123  80.3235 279.7996 15.08844493127890,6917.867,95.437,541.2,538.263,0.0
52135.0,STARLINK-3729,PAYLOAD,2024-07-01 13:24:39,15.08830588,0.0001227,53.2153,315.0506,87.4693,272.6439,0.00023745,3.492e-05,0.0,0 STARLINK-3729,1 52135U 22029AZ  24183.55878887  .00003492  00000-0  23745-3 0  9997,2 52135  53.2153 315.0506 0001227  87.4693 272.6439 15.08830588127926,6917.909,95.438,540.623,538.925,0.0
52135.0,STARLINK-3729,PAYLOAD,2024-07-01 16:35:24,15.08840417,8.12e-05,53.2174,314.4543,123.1226,236.9844,0.00020956,3.049e-05,0.0,0 STARLINK-3729,1 52135U 22029AZ  24183.69126050  .00003049  00000-0  20956-3 0  9999,2 52135  53.2174 314.4543 0000812 123.1226 236.9844 15.08840417127949,6917.879,95.438,540.306,539.182,0.0
52135.0,STARLINK-3729,PAYLOAD,2024-07-02 13:15:26,15.0883765,8.89e-05,53.2163,310.5917,114.949,245.1594,0.00010277,1.348e-05,0.0,0 STARLINK-3729,1 52135U 22029AZ  24184.55238651  .00001348  00000-0  10277-3 0  9991,2 52135  53.2163 310.5917 0000889 114.9490 245.1594 15.08837650128078,6917.888,95.438,540.368,539.138,0.0
52135.0,STARLINK-3729,PAYLOAD,2024-07-02 14:50:49,15.08838201,0.0001037,53.217,310.2936,92.4994,267.6117,9.7659e-05,1.267e-05,0.0,0 STARLINK-3729,1 52135U 22029AZ  24184.61862756  .00001267  00000-0  97659-4 0  9997,2 52135  53.2170 310.2936 0001037  92.4994 267.6117 15.08838201128083,6917.886,95.438,540.468,539.034,0.0
52135.0,STARLINK-3729,PAYLOAD,2024-07-02 18:01:35,15.08842182,9.08e-05,53.218,309.6972,109.588,250.5211,5.3414e-05,5.63e-06,0.0,0 STARLINK-3729,1 52135U 22029AZ  24184.75110523  .00000563  00000-0  53414-4 0  9999,2 52135  53.2180 309.6972 0000908 109.5880 250.5211 15.08842182128108,6917.874,95.437,540.367,539.111,0.0
